{"type": "FeatureCollection", "features": [ {"type": "Feature", "properties": {"norad_id": 30612, "name": "FENGYUN 1C DEB", "group": "fengyun-1c-debris", "lat": -29.348810533085615, "lon": 150.89456581127612, "alt_km": 498.27205045727806, "timestamp": "2025-12-12T20:43:07.312600+00:00", "meta": {"OBJECT_NAME": "FENGYUN 1C DEB", "OBJECT_ID": "1999-025AMT", "EPOCH": "2025-12-11T22:05:04.518816", "MEAN_MOTION": 15.29528685, "ECCENTRICITY": 0.0030442, "INCLINATION": 99.0856, "RA_OF_ASC_NODE": 334.9062, "ARG_OF_PERICENTER": 352.314, "MEAN_ANOMALY": 67.435, "EPHEMERIS_TYPE": 0, "CLASSIFICATION_TYPE": "U", "NORAD_CAT_ID": 30612, "ELEMENT_SET_NO": 999, "REV_AT_EPOCH": 245, "BSTAR": 0.0042045, "MEAN_MOTION_DOT": 0.00123798, "MEAN_MOTION_DDOT": 0}, "tle": {"line1": "1 30612U 99025AMT 25345.92019119  .00123798  00000+0  42045-2 0  9994", "line2": "2 30612  99.0856 334.9062 0030442 352.3140  67.4350 15.29528685  2456"}}, "geometry": {"type": "Point", "coordinates": [150.89456581127612, -29.348810533085615]}}, {"type": "Feature", "properties": {"norad_id": 30613, "name": "FENGYUN 1C DEB", "group": "fengyun-1c-debris", "lat": -42.94732902157337, "lon": 114.43286550375548, "alt_km": 560.0493931671745, "timestamp": "2025-12-12T20:43:07.312611+00:00", "meta": {"OBJECT_NAME": "FENGYUN 1C DEB", "OBJECT_ID": "1999-025AMU", "EPOCH": "2025-12-12T06:40:02.695008", "MEAN_MOTION": 15.17177967, "ECCENTRICITY": 0.00667221, "INCLINATION": 98.305, "RA_OF_ASC_NODE": 105.977, "ARG_OF_PERICENTER": 169.0404, "MEAN_ANOMALY": 191.2299, "EPHEMERIS_TYPE": 0, "CLASSIFICATION_TYPE": "U", "NORAD_CAT_ID": 30613, "ELEMENT_SET_NO": 999, "REV_AT_EPOCH": 99389, "BSTAR": 0.0064299888, "MEAN_MOTION_DOT": 0.00137448, "MEAN_MOTION_DDOT": 0}, "tle": {"line1": "1 30613U 99025AMU 25346.27780897  .00137448  00000+0  64300-2 0  9997", "line2": "2 30613  98.3050 105.9770 0066722 169.0404 191.2299 15.17177967993898"}}, "geometry": {"type": "Point", "coordinates": [114.43286550375548, -42.94732902157337]}}, {"type": "Feature", "properties": {"norad_id": 30616, "name": "FENGYUN 1C DEB", "group": "fengyun-1c-debris", "lat": -27.94903661967941, "lon": 49.671736726165236, "alt_km": 1051.4708113457755, "timestamp": "2025-12-12T20:43:07.312621+00:00", "meta": {"OBJECT_NAME": "FENGYUN 1C DEB", "OBJECT_ID": "1999-025AMX", "EPOCH": "2025-12-10T02:21:28.634112", "MEAN_MOTION": 13.36001981, "ECCENTRICITY": 0.03801159, "INCLINATION": 98.6414, "RA_OF_ASC_NODE": 42.6953, "ARG_OF_PERICENTER": 262.5873, "MEAN_ANOMALY": 93.1923, "EPHEMERIS_TYPE": 0, "CLASSIFICATION_TYPE": "U", "NORAD_CAT_ID": 30616, "ELEMENT_SET_NO": 999, "REV_AT_EPOCH": 91665, "BSTAR": 0.0026398993, "MEAN_MOTION_DOT": 2.004e-05, "MEAN_MOTION_DDOT": 0}, "tle": {"line1": "1 30616U 99025AMX 25344.09824808  .00002004  00000+0  26399-2 0  9994", "line2": "2 30616  98.6414  42.6953 0380115 262.5873  93.1923 13.36001981916656"}}, "geometry": {"type": "Point", "coordinates": [49.671736726165236, -27.94903661967941]}}, {"type": "Feature", "properties": {"norad_id": 30619, "name": "FENGYUN 1C DEB", "group": "fengyun-1c-debris", "lat": -33.58244843475457, "lon": 15.349764989574401, "alt_km": 763.0167155756099, "timestamp": "2025-12-12T20:43:07.312631+00:00", "meta": {"OBJECT_NAME": "FENGYUN 1C DEB", "OBJECT_ID": "1999-025ANA", "EPOCH": "2025-12-12T00:52:41.000160", "MEAN_MOTION": 14.41091746, "ECCENTRICITY": 0.021594, "INCLINATION": 98.2962, "RA_OF_ASC_NODE": 8.9873, "ARG_OF_PERICENTER": 60.5864, "MEAN_ANOMALY": 301.6692, "EPHEMERIS_TYPE": 0, "CLASSIFICATION_TYPE": "U", "NORAD_CAT_ID": 30619, "ELEMENT_SET_NO": 999, "REV_AT_EPOCH": 98939, "BSTAR": 0.00048686, "MEAN_MOTION_DOT": 2.021e-05, "MEAN_MOTION_DDOT": 0}, "tle": {"line1": "1 30619U 99025ANA 25346.03658565  .00002021  00000+0  48686-3 0  9991", "line2": "2 30619  98.2962   8.9873 0215940  60.5864 301.6692 14.41091746989394"}}, "geometry": {"type": "Point", "coordinates": [15.349764989574401, -33.58244843475457]}}, {"type": "Feature", "properties": {"norad_id": 30621, "name": "FENGYUN 1C DEB", "group": "fengyun-1c-debris", "lat": -63.66188368830313, "lon": -51.711124555551464, "alt_km": 789.5826434557566, "timestamp": "2025-12-12T20:43:07.312642+00:00", "meta": {"OBJECT_NAME": "FENGYUN 1C DEB", "OBJECT_ID": "1999-025ANC", "EPOCH": "2025-12-11T08:07:04.185696", "MEAN_MOTION": 14.03805919, "ECCENTRICITY": 0.01378447, "INCLINATION": 98.6967, "RA_OF_ASC_NODE": 288.82, "ARG_OF_PERICENTER": 310.6567, "MEAN_ANOMALY": 201.7963, "EPHEMERIS_TYPE": 0, "CLASSIFICATION_TYPE": "U", "NORAD_CAT_ID": 30621, "ELEMENT_SET_NO": 999, "REV_AT_EPOCH": 95570, "BSTAR": 0.0047795411, "MEAN_MOTION_DOT": 8.157e-05, "MEAN_MOTION_DDOT": 0}, "tle": {"line1": "1 30621U 99025ANC 25345.33824289  .00008157  00000+0  47795-2 0  9999", "line2": "2 30621  98.6967 288.8200 0137844 310.6567 201.7963 14.03805919955706"}}, "geometry": {"type": "Point", "coordinates": [-51.711124555551464, -63.66188368830313]}}, {"type": "Feature", "properties": {"norad_id": 30622, "name": "FENGYUN 1C DEB", "group": "fengyun-1c-debris", "lat": -14.906279691227835, "lon": 175.4668831018672, "alt_km": 844.0507309099976, "timestamp": "2025-12-12T20:43:07.312652+00:00", "meta": {"OBJECT_NAME": "FENGYUN 1C DEB", "OBJECT_ID": "1999-025AND", "EPOCH": "2025-12-11T12:38:07.039104", "MEAN_MOTION": 14.31182818, "ECCENTRICITY": 0.00723813, "INCLINATION": 101.0025, "RA_OF_ASC_NODE": 356.7466, "ARG_OF_PERICENTER": 18.1583, "MEAN_ANOMALY": 132.8561, "EPHEMERIS_TYPE": 0, "CLASSIFICATION_TYPE": "U", "NORAD_CAT_ID": 30622, "ELEMENT_SET_NO": 999, "REV_AT_EPOCH": 68780, "BSTAR": 0.0063264474, "MEAN_MOTION_DOT": 0.00017175, "MEAN_MOTION_DDOT": 0}, "tle": {"line1": "1 30622U 99025AND 25345.52647036  .00017175  00000+0  63264-2 0  9993", "line2": "2 30622 101.0025 356.7466 0072381  18.1583 132.8561 14.31182818687800"}}, "geometry": {"type": "Point", "coordinates": [175.4668831018672, -14.906279691227835]}}, {"type": "Feature", "properties": {"norad_id": 30623, "name": "FENGYUN 1C DEB", "group": "fengyun-1c-debris", "lat": -13.26150626072396, "lon": 167.6641599882677, "alt_km": 1300.1105334676959, "timestamp": "2025-12-12T20:43:07.312662+00:00", "meta": {"OBJECT_NAME": "FENGYUN 1C DEB", "OBJECT_ID": "1999-025ANE", "EPOCH": "2025-12-12T07:10:33.017664", "MEAN_MOTION": 13.29338314, "ECCENTRICITY": 0.04038172, "INCLINATION": 98.8231, "RA_OF_ASC_NODE": 165.0826, "ARG_OF_PERICENTER": 108.8949, "MEAN_ANOMALY": 62.7649, "EPHEMERIS_TYPE": 0, "CLASSIFICATION_TYPE": "U", "NORAD_CAT_ID": 30623, "ELEMENT_SET_NO": 999, "REV_AT_EPOCH": 91210, "BSTAR": 0.00075942509, "MEAN_MOTION_DOT": 5.18e-06, "MEAN_MOTION_DDOT": 0}, "tle": {"line1": "1 30623U 99025ANE 25346.29899326  .00000518  00000+0  75943-3 0  9991", "line2": "2 30623  98.8231 165.0826 0403817 108.8949  62.7649 13.29338314912101"}}, "geometry": {"type": "Point", "coordinates": [167.6641599882677, -13.26150626072396]}}, {"type": "Feature", "properties": {"norad_id": 30624, "name": "FENGYUN 1C DEB", "group": "fengyun-1c-debris", "lat": 47.22009568164735, "lon": -101.39697265309499, "alt_km": 692.5942197147679, "timestamp": "2025-12-12T20:43:07.312673+00:00", "meta": {"OBJECT_NAME": "FENGYUN 1C DEB", "OBJECT_ID": "1999-025ANF", "EPOCH": "2025-12-08T04:25:50.912256", "MEAN_MOTION": 14.61976094, "ECCENTRICITY": 0.00216338, "INCLINATION": 98.8861, "RA_OF_ASC_NODE": 63.8416, "ARG_OF_PERICENTER": 281.734, "MEAN_ANOMALY": 78.1432, "EPHEMERIS_TYPE": 0, "CLASSIFICATION_TYPE": "U", "NORAD_CAT_ID": 30624, "ELEMENT_SET_NO": 999, "REV_AT_EPOCH": 97429, "BSTAR": 0.0057004197, "MEAN_MOTION_DOT": 0.00028724, "MEAN_MOTION_DDOT": 0}, "tle": {"line1": "1 30624U 99025ANF 25342.18461704  .00028724  00000+0  57004-2 0  9997", "line2": "2 30624  98.8861  63.8416 0021633 281.7340  78.1432 14.61976094974298"}}, "geometry": {"type": "Point", "coordinates": [-101.39697265309499, 47.22009568164735]}}, {"type": "Feature", "properties": {"norad_id": 30625, "name": "FENGYUN 1C DEB", "group": "fengyun-1c-debris", "lat": 75.27215533352025, "lon": -93.89752415873001, "alt_km": 771.8522402449853, "timestamp": "2025-12-12T20:43:07.312683+00:00", "meta": {"OBJECT_NAME": "FENGYUN 1C DEB", "OBJECT_ID": "1999-025ANG", "EPOCH": "2025-12-11T07:42:26.398368", "MEAN_MOTION": 14.41452586, "ECCENTRICITY": 0.00500156, "INCLINATION": 98.9274, "RA_OF_ASC_NODE": 301.2172, "ARG_OF_PERICENTER": 306.656, "MEAN_ANOMALY": 53.0035, "EPHEMERIS_TYPE": 0, "CLASSIFICATION_TYPE": "U", "NORAD_CAT_ID": 30625, "ELEMENT_SET_NO": 999, "REV_AT_EPOCH": 96672, "BSTAR": 0.0091797913, "MEAN_MOTION_DOT": 0.00030313, "MEAN_MOTION_DDOT": 0}, "tle": {"line1": "1 30625U 99025ANG 25345.32113887  .00030313  00000+0  91798-2 0  9998", "line2": "2 30625  98.9274 301.2172 0050015 306.6560  53.0035 14.41452586966726"}}, "geometry": {"type": "Point", "coordinates": [-93.89752415873001, 75.27215533352025]}}, {"type": "Feature", "properties": {"norad_id": 30628, "name": "FENGYUN 1C DEB", "group": "fengyun-1c-debris", "lat": 62.192075726814245, "lon": 100.7949679912865, "alt_km": 668.2888353852404, "timestamp": "2025-12-12T20:43:07.312693+00:00", "meta": {"OBJECT_NAME": "FENGYUN 1C DEB", "OBJECT_ID": "1999-025ANK", "EPOCH": "2025-12-12T05:28:38.754912", "MEAN_MOTION": 14.69031296, "ECCENTRICITY": 0.00225482, "INCLINATION": 99.3395, "RA_OF_ASC_NODE": 261.888, "ARG_OF_PERICENTER": 248.852, "MEAN_ANOMALY": 111.0272, "EPHEMERIS_TYPE": 0, "CLASSIFICATION_TYPE": "U", "NORAD_CAT_ID": 30628, "ELEMENT_SET_NO": 999, "REV_AT_EPOCH": 98463, "BSTAR": 0.0041634092, "MEAN_MOTION_DOT": 0.00024542, "MEAN_MOTION_DDOT": 0}, "tle": {"line1": "1 30628U 99025ANK 25346.22822633  .00024542  00000+0  41634-2 0  9998", "line2": "2 30628  99.3395 261.8880 0022548 248.8520 111.0272 14.69031296984637"}}, "geometry": {"type": "Point", "coordinates": [100.7949679912865, 62.192075726814245]}}]}